FLOCK 4G-6              
1 62660U 25009BD  26068.71061311  .00012261  00000+0  45910-3 0  9991
2 62660  97.3980 150.7943 0002380 348.2637  11.8546 15.27432125121307
STARLINK-33587          
1 63469U 25070K   26068.52974401  .00032748  00000+0  11938-2 0  9993
2 63469  43.0004 260.5600 0001797 266.7226  93.3420 15.27591812 52958
